{"type": "FeatureCollection", "features": [{"type": "Feature", "geometry": {"type": "MultiPolygon", "coordinates": [[[[126.4105418716613, 37.645546309715264], [126.41054891403587, 37.64550836936208], [126.410501319868, 37.645464677457255], [126.4104487766086, 37.64543784480258], [126.41040642690952, 37.6453929448132], [126.41035903919321, 37.64530320561764], [126.41032937655852, 37.64526874827541], [126.41032964047443, 37.64519398760832], [126.41022910088815, 37.64515426480379], [126.41019095420891, 37.645178093312886], [126.41014754524885, 37.64514535994368], [126.41003275249135, 37.64503267754161], [126.41001248959897, 37.64517031532387], [126.41001850828205, 37.64517862535807], [126.41012779490413, 37.64527839638713], [126.41030494112945, 37.645409662723544], [126.4105418716613, 37.645546309715264]]]]}, "properties": {"gosi_year": "2025", "pnu": "2871034021101440001", "jibun": "144-1대", "bonbun": "144", "bubun": "1", "addr": "인천광역시 강화군 화도면 내리 144-1", "gosi_month": "01", "jiga": "133100"}, "id": "LP_PA_CBND_BUBUN.2876097", "_addr": "인천광역시 강화군 화도면 내리 144-1"}, {"type": "Feature", "geometry": {"type": "MultiPolygon", "coordinates": [[[[126.40993155552351, 37.64541592673318], [126.40996002023826, 37.64536424601694], [126.40991635706743, 37.645349278297694], [126.40989355417909, 37.64539140113967], [126.40971460314121, 37.6457219412086], [126.40972035401053, 37.64572259172105], [126.40975705353017, 37.645732695417834], [126.40993155552351, 37.64541592673318]]]]}, "properties": {"gosi_year": "2025", "pnu": "2871034021101400001", "jibun": "140-1 묘", "bonbun": "140", "bubun": "1묘", "addr": "인천광역시 강화군 화도면 내리 140-1", "gosi_month": "01", "jiga": "46700"}, "id": "LP_PA_CBND_BUBUN.2876074", "_addr": "인천광역시 강화군 화도면 내리 140-1"}, {"type": "Feature", "geometry": {"type": "MultiPolygon", "coordinates": [[[[126.41001248959897, 37.64517031532387], [126.40991635706743, 37.645349278297694], [126.40996002023826, 37.64536424601694], [126.40993155552351, 37.64541592673318], [126.41049905902796, 37.645615595607715], [126.41053742082173, 37.645570352166416], [126.4105418716613, 37.645546309715264], [126.41030494112945, 37.645409662723544], [126.41012779490413, 37.64527839638713], [126.41001850828205, 37.64517862535807], [126.41001248959897, 37.64517031532387]]]]}, "properties": {"gosi_year": "2025", "pnu": "2871034021101400003", "jibun": "140-3묘", "bonbun": "140", "bubun": "3묘", "addr": "인천광역시 강화군 화도면 내리 140-3", "gosi_month": "01", "jiga": "70700"}, "id": "LP_PA_CBND_BUBUN.2876084", "_addr": "인천광역시 강화군 화도면 내리 140-3"}]}